{"type": "FeatureCollection", "features": [{"type": "Feature", "properties": {"norad_id": 24946, "name": "IRIDIUM 33", "group": "iridium-33-debris", "lat": -86.1458494537801, "lon": -6.1252773765368, "alt_km": 784.0965697851443, "timestamp": "2025-12-23T16:57:12.738745+00:00", "meta": {"OBJECT_NAME": "IRIDIUM 33", "OBJECT_ID": "1997-051C", "EPOCH": "2025-12-23T03:58:44.167872", "MEAN_MOTION": 14.3504426, "ECCENTRICITY": 0.00082728, "INCLINATION": 86.3859, "RA_OF_ASC_NODE": 63.845, "ARG_OF_PERICENTER": 166.1802, "MEAN_ANOMALY": 193.9622, "EPHEMERIS_TYPE": 0, "CLASSIFICATION_TYPE": "U", "NORAD_CAT_ID": 24946, "ELEMENT_SET_NO": 999, "REV_AT_EPOCH": 47984, "BSTAR": 0.00010765211, "MEAN_MOTION_DOT": 3.26e-06, "MEAN_MOTION_DDOT": 0}, "tle": {"line1": "1 24946U 97051C   25357.16578898  .00000326  00000+0  10765-3 0  9993", "line2": "2 24946  86.3859  63.8450 0008272 166.1802 193.9622 14.35044260479848"}}, "geometry": {"type": "Point", "coordinates": [-6.1252773765368, -86.1458494537801]}}, {"type": "Feature", "properties": {"norad_id": 33773, "name": "IRIDIUM 33 DEB", "group": "iridium-33-debris", "lat": -12.828383863975375, "lon": -123.23651888118017, "alt_km": 750.313920675153, "timestamp": "2025-12-23T16:57:12.738790+00:00", "meta": {"OBJECT_NAME": "IRIDIUM 33 DEB", "OBJECT_ID": "1997-051L", "EPOCH": "2025-12-23T04:25:01.162272", "MEAN_MOTION": 14.43278196, "ECCENTRICITY": 0.00132128, "INCLINATION": 86.3999, "RA_OF_ASC_NODE": 56.1634, "ARG_OF_PERICENTER": 116.3011, "MEAN_ANOMALY": 243.9549, "EPHEMERIS_TYPE": 0, "CLASSIFICATION_TYPE": "U", "NORAD_CAT_ID": 33773, "ELEMENT_SET_NO": 999, "REV_AT_EPOCH": 88498, "BSTAR": 0.00028262312, "MEAN_MOTION_DOT": 9.72e-06, "MEAN_MOTION_DDOT": 0}, "tle": {"line1": "1 33773U 97051L   25357.18404123  .00000972  00000+0  28262-3 0  9990", "line2": "2 33773  86.3999  56.1634 0013212 116.3011 243.9549 14.43278196884984"}}, "geometry": {"type": "Point", "coordinates": [-123.23651888118017, -12.828383863975375]}}, {"type": "Feature", "properties": {"norad_id": 33775, "name": "IRIDIUM 33 DEB", "group": "iridium-33-debris", "lat": -25.82774226499132, "lon": -133.36444813965403, "alt_km": 758.1596994978372, "timestamp": "2025-12-23T16:57:12.738807+00:00", "meta": {"OBJECT_NAME": "IRIDIUM 33 DEB", "OBJECT_ID": "1997-051N", "EPOCH": "2025-12-23T04:37:42.126816", "MEAN_MOTION": 14.4148958, "ECCENTRICITY": 0.00151932, "INCLINATION": 86.3625, "RA_OF_ASC_NODE": 45.0904, "ARG_OF_PERICENTER": 123.4918, "MEAN_ANOMALY": 298.8096, "EPHEMERIS_TYPE": 0, "CLASSIFICATION_TYPE": "U", "NORAD_CAT_ID": 33775, "ELEMENT_SET_NO": 999, "REV_AT_EPOCH": 88291, "BSTAR": 0.00028728715, "MEAN_MOTION_DOT": 9.53e-06, "MEAN_MOTION_DDOT": 0}, "tle": {"line1": "1 33775U 97051N   25357.19284869  .00000953  00000+0  28729-3 0  9993", "line2": "2 33775  86.3625  45.0904 0015193 123.4918 298.8096 14.41489580882910"}}, "geometry": {"type": "Point", "coordinates": [-133.36444813965403, -25.82774226499132]}}, {"type": "Feature", "properties": {"norad_id": 33776, "name": "IRIDIUM 33 DEB", "group": "iridium-33-debris", "lat": -52.12536940453716, "lon": 71.53157020166744, "alt_km": 781.1710962093684, "timestamp": "2025-12-23T16:57:12.738821+00:00", "meta": {"OBJECT_NAME": "IRIDIUM 33 DEB", "OBJECT_ID": "1997-051P", "EPOCH": "2025-12-23T05:45:23.294880", "MEAN_MOTION": 14.38252689, "ECCENTRICITY": 0.00155515, "INCLINATION": 86.4031, "RA_OF_ASC_NODE": 76.3663, "ARG_OF_PERICENTER": 156.8521, "MEAN_ANOMALY": 256.7736, "EPHEMERIS_TYPE": 0, "CLASSIFICATION_TYPE": "U", "NORAD_CAT_ID": 33776, "ELEMENT_SET_NO": 999, "REV_AT_EPOCH": 88233, "BSTAR": 0.00025539679, "MEAN_MOTION_DOT": 7.97e-06, "MEAN_MOTION_DDOT": 0}, "tle": {"line1": "1 33776U 97051P   25357.23985295  .00000797  00000+0  25540-3 0  9994", "line2": "2 33776  86.4031  76.3663 0015551 156.8521 256.7736 14.38252689882334"}}, "geometry": {"type": "Point", "coordinates": [71.53157020166744, -52.12536940453716]}}, {"type": "Feature", "properties": {"norad_id": 33777, "name": "IRIDIUM 33 DEB", "group": "iridium-33-debris", "lat": 61.3286969066152, "lon": 37.08545611362968, "alt_km": 704.619584116329, "timestamp": "2025-12-23T16:57:12.738834+00:00", "meta": {"OBJECT_NAME": "IRIDIUM 33 DEB", "OBJECT_ID": "1997-051Q", "EPOCH": "2025-12-23T01:49:24.757536", "MEAN_MOTION": 14.55681547, "ECCENTRICITY": 0.00060892, "INCLINATION": 86.3772, "RA_OF_ASC_NODE": 30.7065, "ARG_OF_PERICENTER": 204.7335, "MEAN_ANOMALY": 155.3581, "EPHEMERIS_TYPE": 0, "CLASSIFICATION_TYPE": "U", "NORAD_CAT_ID": 33777, "ELEMENT_SET_NO": 999, "REV_AT_EPOCH": 88684, "BSTAR": 0.00082504009, "MEAN_MOTION_DOT": 3.625e-05, "MEAN_MOTION_DDOT": 0}, "tle": {"line1": "1 33777U 97051Q   25357.07598099  .00003625  00000+0  82504-3 0  9995", "line2": "2 33777  86.3772  30.7065 0006089 204.7335 155.3581 14.55681547886848"}}, "geometry": {"type": "Point", "coordinates": [37.08545611362968, 61.3286969066152]}}, {"type": "Feature", "properties": {"norad_id": 33850, "name": "IRIDIUM 33 DEB", "group": "iridium-33-debris", "lat": -33.44832531949125, "lon": -152.1136148020697, "alt_km": 756.806180381479, "timestamp": "2025-12-23T16:57:12.738846+00:00", "meta": {"OBJECT_NAME": "IRIDIUM 33 DEB", "OBJECT_ID": "1997-051T", "EPOCH": "2025-12-23T01:18:39.353760", "MEAN_MOTION": 14.42170528, "ECCENTRICITY": 0.00132174, "INCLINATION": 86.3408, "RA_OF_ASC_NODE": 25.7438, "ARG_OF_PERICENTER": 130.2075, "MEAN_ANOMALY": 301.3168, "EPHEMERIS_TYPE": 0, "CLASSIFICATION_TYPE": "U", "NORAD_CAT_ID": 33850, "ELEMENT_SET_NO": 999, "REV_AT_EPOCH": 88301, "BSTAR": 0.00036951681, "MEAN_MOTION_DOT": 1.237e-05, "MEAN_MOTION_DDOT": 0}, "tle": {"line1": "1 33850U 97051T   25357.05462215  .00001237  00000+0  36952-3 0  9998", "line2": "2 33850  86.3408  25.7438 0013217 130.2075 301.3168 14.42170528883017"}}, "geometry": {"type": "Point", "coordinates": [-152.1136148020697, -33.44832531949125]}}, {"type": "Feature", "properties": {"norad_id": 33853, "name": "IRIDIUM 33 DEB", "group": "iridium-33-debris", "lat": -19.874146134746187, "lon": -16.447727291022524, "alt_km": 1013.1591163342655, "timestamp": "2025-12-23T16:57:12.738859+00:00", "meta": {"OBJECT_NAME": "IRIDIUM 33 DEB", "OBJECT_ID": "1997-051W", "EPOCH": "2025-12-23T00:09:43.235424", "MEAN_MOTION": 13.99112351, "ECCENTRICITY": 0.02074949, "INCLINATION": 86.0001, "RA_OF_ASC_NODE": 345.3082, "ARG_OF_PERICENTER": 204.1504, "MEAN_ANOMALY": 212.5923, "EPHEMERIS_TYPE": 0, "CLASSIFICATION_TYPE": "U", "NORAD_CAT_ID": 33853, "ELEMENT_SET_NO": 999, "REV_AT_EPOCH": 85489, "BSTAR": 0.0012076466, "MEAN_MOTION_DOT": 2.12e-05, "MEAN_MOTION_DDOT": 0}, "tle": {"line1": "1 33853U 97051W   25357.00675041  .00002120  00000+0  12076-2 0  9991", "line2": "2 33853  86.0001 345.3082 0207494 204.1504 212.5923 13.99112351854899"}}, "geometry": {"type": "Point", "coordinates": [-16.447727291022524, -19.874146134746187]}}, {"type": "Feature", "properties": {"norad_id": 33860, "name": "IRIDIUM 33 DEB", "group": "iridium-33-debris", "lat": 63.22284171895884, "lon": 29.585485711343377, "alt_km": 664.359724131531, "timestamp": "2025-12-23T16:57:12.738872+00:00", "meta": {"OBJECT_NAME": "IRIDIUM 33 DEB", "OBJECT_ID": "1997-051AD", "EPOCH": "2025-12-23T00:24:44.686368", "MEAN_MOTION": 14.67484172, "ECCENTRICITY": 0.00062045, "INCLINATION": 86.3821, "RA_OF_ASC_NODE": 22.688, "ARG_OF_PERICENTER": 317.9122, "MEAN_ANOMALY": 66.8046, "EPHEMERIS_TYPE": 0, "CLASSIFICATION_TYPE": "U", "NORAD_CAT_ID": 33860, "ELEMENT_SET_NO": 999, "REV_AT_EPOCH": 88873, "BSTAR": 0.0012079683, "MEAN_MOTION_DOT": 6.866e-05, "MEAN_MOTION_DDOT": 0}, "tle": {"line1": "1 33860U 97051AD  25357.01718387  .00006866  00000+0  12080-2 0  9997", "line2": "2 33860  86.3821  22.6880 0006204 317.9122  66.8046 14.67484172888731"}}, "geometry": {"type": "Point", "coordinates": [29.585485711343377, 63.22284171895884]}}, {"type": "Feature", "properties": {"norad_id": 33862, "name": "IRIDIUM 33 DEB", "group": "iridium-33-debris", "lat": -3.0090167780740193, "lon": -147.11732914831103, "alt_km": 697.7809511682517, "timestamp": "2025-12-23T16:57:12.738883+00:00", "meta": {"OBJECT_NAME": "IRIDIUM 33 DEB", "OBJECT_ID": "1997-051AF", "EPOCH": "2025-12-23T01:32:54.489984", "MEAN_MOTION": 14.6963106, "ECCENTRICITY": 0.0052374, "INCLINATION": 86.4076, "RA_OF_ASC_NODE": 32.9766, "ARG_OF_PERICENTER": 34.4882, "MEAN_ANOMALY": 354.3477, "EPHEMERIS_TYPE": 0, "CLASSIFICATION_TYPE": "U", "NORAD_CAT_ID": 33862, "ELEMENT_SET_NO": 999, "REV_AT_EPOCH": 88975, "BSTAR": 0.0015854731, "MEAN_MOTION_DOT": 9.654e-05, "MEAN_MOTION_DDOT": 0}, "tle": {"line1": "1 33862U 97051AF  25357.06451956  .00009654  00000+0  15855-2 0  9991", "line2": "2 33862  86.4076  32.9766 0052374  34.4882 354.3477 14.69631060889754"}}, "geometry": {"type": "Point", "coordinates": [-147.11732914831103, -3.0090167780740193]}}, {"type": "Feature", "properties": {"norad_id": 33866, "name": "IRIDIUM 33 DEB", "group": "iridium-33-debris", "lat": -57.040913621206336, "lon": 82.66853263964845, "alt_km": 897.1739168119302, "timestamp": "2025-12-23T16:57:12.738894+00:00", "meta": {"OBJECT_NAME": "IRIDIUM 33 DEB", "OBJECT_ID": "1997-051AK", "EPOCH": "2025-12-23T05:45:31.444128", "MEAN_MOTION": 14.25305338, "ECCENTRICITY": 0.01151122, "INCLINATION": 86.2999, "RA_OF_ASC_NODE": 88.5936, "ARG_OF_PERICENTER": 128.1156, "MEAN_ANOMALY": 302.7361, "EPHEMERIS_TYPE": 0, "CLASSIFICATION_TYPE": "U", "NORAD_CAT_ID": 33866, "ELEMENT_SET_NO": 999, "REV_AT_EPOCH": 86960, "BSTAR": 0.00052227841, "MEAN_MOTION_DOT": 1.337e-05, "MEAN_MOTION_DDOT": 0}, "tle": {"line1": "1 33866U 97051AK  25357.23994727  .00001337  00000+0  52228-3 0  9998", "line2": "2 33866  86.2999  88.5936 0115112 128.1156 302.7361 14.25305338869600"}}, "geometry": {"type": "Point", "coordinates": [82.66853263964845, -57.040913621206336]}}]}